NORAD_CAT_ID,OBJECT_NAME,OBJECT_TYPE,EPOCH,MEAN_MOTION,ECCENTRICITY,INCLINATION,RA_OF_ASC_NODE,ARG_OF_PERICENTER,MEAN_ANOMALY,BSTAR,MEAN_MOTION_DOT,MEAN_MOTION_DDOT,TLE_LINE0,TLE_LINE1,TLE_LINE2,SEMIMAJOR_AXIS,PERIOD,APOGEE,PERIGEE,DECAYED
52605.0,STARLINK-4000,PAYLOAD,2023-03-07 00:46:46,15.0883616,0.0001616,53.2166,176.1858,92.443,267.6747,-5.8893e-05,-1.225e-05,0.0,0 STARLINK-4000,1 52605U 22052H   23066.03247782 -.00001225  00000-0 -58893-4 0  9998,2 52605  53.2166 176.1858 0001616  92.4430 267.6747 15.08836160 45292,6917.892,95.438,540.875,538.639,0.0
52605.0,STARLINK-4000,PAYLOAD,2023-03-07 16:40:37,15.08848112,0.0001364,53.215,173.2122,87.4917,272.6231,0.0003476,5.25e-05,0.0,0 STARLINK-4000,1 52605U 22052H   23066.69487718  .00005250  00000-0  34760-3 0  9991,2 52605  53.2150 173.2122 0001364  87.4917 272.6231 15.08848112 45026,6917.856,95.437,540.664,538.777,0.0
52605.0,STARLINK-4000,PAYLOAD,2023-03-08 06:59:06,15.08834273,0.0001336,53.2162,170.5365,107.1577,252.9562,6.4144e-05,7.33e-06,0.0,0 STARLINK-4000,1 52605U 22052H   23067.29104373  .00000733  00000-0  64144-4 0  9992,2 52605  53.2162 170.5365 0001336 107.1577 252.9562 15.08834273 45480,6917.898,95.438,540.687,538.839,0.0
52605.0,STARLINK-4000,PAYLOAD,2023-03-08 10:09:52,15.08837265,0.0001251,53.2162,169.9417,108.7939,251.3189,0.0001344,1.852e-05,0.0,0 STARLINK-4000,1 52605U 22052H   23067.42352294  .00001852  00000-0  13440-3 0  9999,2 52605  53.2162 169.9417 0001251 108.7939 251.3189 15.08837265 45139,6917.889,95.438,540.619,538.888,0.0
52605.0,STARLINK-4000,PAYLOAD,2023-03-09 13:11:26,15.08837524,8.83e-05,53.2173,164.8845,113.7311,246.3773,0.00018523,2.661e-05,0.0,0 STARLINK-4000,1 52605U 22052H   23068.54961210  .00002661  00000-0  18523-3 0  9993,2 52605  53.2173 164.8845 0000883 113.7311 246.3773 15.08837524 45670,6917.888,95.438,540.364,539.142,0.0
52605.0,STARLINK-4000,PAYLOAD,2023-03-09 22:43:44,15.0884712,8.6e-05,53.2161,163.1026,116.2044,243.9037,0.00044973,6.878e-05,0.0,0 STARLINK-4000,1 52605U 22052H   23068.94704684  .00006878  00000-0  44973-3 0  9999,2 52605  53.2161 163.1026 0000860 116.2044 243.9037 15.08847120 45732,6917.859,95.437,540.319,539.129,0.0
52605.0,STARLINK-4000,PAYLOAD,2023-03-10 11:26:48,15.08888197,0.000162,53.219,160.7279,110.8114,249.3052,0.0010502,0.00016487,0.0,0 STARLINK-4000,1 52605U 22052H   23069.47695008  .00016487  00000-0  10502-2 0  9994,2 52605  53.2190 160.7279 0001620 110.8114 249.3052 15.08888197 45815,6917.733,95.435,540.719,538.477,0.0
52605.0,STARLINK-4000,PAYLOAD,2023-03-10 13:02:11,15.08889586,0.0001641,53.219,160.4306,112.0129,248.1038,0.0010132,0.00015896,0.0,0 STARLINK-4000,1 52605U 22052H   23069.54318766  .00015896  00000-0  10132-2 0  9997,2 52605  53.2190 160.4306 0001641 112.0129 248.1038 15.08889586 45450,6917.729,95.434,540.729,538.459,0.0
52605.0,STARLINK-4000,PAYLOAD,2023-03-10 22:34:29,15.08879321,0.0001307,53.2174,158.6418,73.9442,286.1694,0.00048191,7.398e-05,0.0,0 STARLINK-4000,1 52605U 22052H   23069.94062196  .00007398  00000-0  48191-3 0  9999,2 52605  53.2174 158.6418 0001307  73.9442 286.1694 15.08879321 45880,6917.76,95.435,540.529,538.721,0.0
52605.0,STARLINK-4000,PAYLOAD,2023-03-11 06:31:26,15.08816746,0.0001088,53.2172,157.1552,96.0887,264.0229,-0.0014013,-0.00022506,0.0,0 STARLINK-4000,1 52605U 22052H   23070.27183286 -.00022506  00000-0 -14013-2 0  9996,2 52605  53.2172 157.1552 0001088  96.0887 264.0229 15.08816746 45933,6917.951,95.439,540.569,539.064,0.0
52605.0,STARLINK-4000,PAYLOAD,2023-03-11 09:42:12,15.08821196,0.0001461,53.2179,156.5642,113.3189,246.7957,-0.0011347,-0.00018292,0.0,0 STARLINK-4000,1 52605U 22052H   23070.40431295 -.00018292  00000-0 -11347-2 0  9991,2 52605  53.2179 156.5642 0001461 113.3189 246.7957 15.08821196 45587,6917.938,95.439,540.814,538.792,0.0
52605.0,STARLINK-4000,PAYLOAD,2023-03-11 14:28:22,15.08830811,0.0001262,53.2167,155.6675,97.4362,262.6773,-0.00070726,-0.00011523,0.0,0 STARLINK-4000,1 52605U 22052H   23070.60303334 -.00011523  00000-0 -70726-3 0  9992,2 52605  53.2167 155.6675 0001262  97.4362 262.6773 15.08830811 45985,6917.908,95.438,540.647,538.9,0.0
52605.0,STARLINK-4000,PAYLOAD,2023-03-12 06:22:14,15.08816036,0.0001225,53.2163,152.6956,104.9378,255.175,1.1167e-05,-1.1e-06,0.0,0 STARLINK-4000,1 52605U 22052H   23071.26544913 -.00000110  00000-0  11167-4 0  9999,2 52605  53.2163 152.6956 0001225 104.9378 255.1750 15.08816036 45716,6917.954,95.439,540.666,538.971,0.0
52605.0,STARLINK-4000,PAYLOAD,2023-03-12 14:19:10,15.0883978,0.0001257,53.2163,151.207,114.4315,245.6808,0.00044151,6.746e-05,0.0,0 STARLINK-4000,1 52605U 22052H   23071.59664544  .00006746  00000-0  44151-3 0  9996,2 52605  53.2163 151.2070 0001257 114.4315 245.6808 15.08839780 46136,6917.881,95.438,540.616,538.876,0.0
52605.0,STARLINK-4000,PAYLOAD,2023-03-14 01:17:39,15.08835694,0.0001167,53.2162,144.6656,100.6897,259.4226,0.00014585,2.034e-05,0.0,0 STARLINK-4000,1 52605U 22052H   23073.05393178  .00002034  00000-0  14585-3 0  9995,2 52605  53.2162 144.6656 0001167 100.6897 259.4226 15.08835694 46354,6917.894,95.438,540.566,538.951,0.0
52605.0,STARLINK-4000,PAYLOAD,2023-03-14 10:49:58,15.08843073,0.0001423,53.2156,142.8814,83.6389,276.4765,-0.00017707,-3.105e-05,0.0,0 STARLINK-4000,1 52605U 22052H   23073.45136834 -.00003105  00000-0 -17707-3 0  9994,2 52605  53.2156 142.8814 0001423  83.6389 276.4765 15.08843073 46047,6917.871,95.437,540.72,538.752,0.0
52605.0,STARLINK-4000,PAYLOAD,2023-03-15 04:19:12,15.08883666,0.0001095,53.2158,139.6098,71.1452,288.9659,-0.0004517,-7.478e-05,0.0,0 STARLINK-4000,1 52605U 22052H   23074.18000249 -.00007478  00000-0 -45170-3 0  9997,2 52605  53.2158 139.6098 0001095  71.1452 288.9659 15.08883666 46520,6917.747,95.435,540.369,538.854,0.0
52605.0,STARLINK-4000,PAYLOAD,2023-03-15 10:40:44,15.08868104,0.0001453,53.2153,138.4205,69.6158,290.499,0.00082734,0.00012914,0.0,0 STARLINK-4000,1 52605U 22052H   23074.44495941  .00012914  00000-0  82734-3 0  9999,2 52605  53.2153 138.4205 0001453  69.6158 290.4990 15.08868104 46194,6917.794,95.436,540.665,538.654,0.0
52605.0,STARLINK-4000,PAYLOAD,2023-03-16 00:59:13,15.08818854,0.0001317,53.2153,135.7444,65.1211,294.9918,-0.00085481,-0.00013858,0.0,0 STARLINK-4000,1 52605U 22052H   23075.04112819 -.00013858  00000-0 -85481-3 0  9998,2 52605  53.2153 135.7444 0001317  65.1211 294.9918 15.08818854 46656,6917.945,95.439,540.721,538.899,0.0
52605.0,STARLINK-4000,PAYLOAD,2023-03-16 13:42:19,15.08803616,0.0001265,53.216,133.366,88.0995,272.0142,0.0011893,0.00018672,0.0,0 STARLINK-4000,1 52605U 22052H   23075.57105789  .00018672  00000-0  11893-2 0  9996,2 52605  53.2160 133.3660 0001265  88.0995 272.0142 15.08803616 46367,6917.992,95.44,540.732,538.981,0.0
52605.0,STARLINK-4000,PAYLOAD,2023-03-17 10:22:20,15.0884421,0.0001292,53.2162,129.5,91.5867,268.5273,0.0013646,0.00021499,0.0,0 STARLINK-4000,1 52605U 22052H   23076.43218511  .00021499  00000-0  13646-2 0  9999,2 52605  53.2162 129.5000 0001292  91.5867 268.5273 15.08844210 46495,6917.868,95.437,540.626,538.839,0.0
52605.0,STARLINK-4000,PAYLOAD,2023-03-17 19:54:39,15.08857279,0.0001276,53.2163,127.7163,90.2065,269.9073,0.0011963,0.00018811,0.0,0 STARLINK-4000,1 52605U 22052H   23076.82962256  .00018811  00000-0  11963-2 0  9998,2 52605  53.2163 127.7163 0001276  90.2065 269.9073 15.08857279 46924,6917.828,95.436,540.575,538.81,0.0
52605.0,STARLINK-4000,PAYLOAD,2023-03-18 10:13:06,15.08870364,0.0001318,53.2161,125.0401,92.3004,267.8139,0.0010041,0.00015742,0.0,0 STARLINK-4000,1 52605U 22052H   23077.42577496  .00015742  00000-0  10041-2 0  9999,2 52605  53.2161 125.0401 0001318  92.3004 267.8139 15.08870364 47012,6917.788,95.436,540.564,538.741,0.0
52605.0,STARLINK-4000,PAYLOAD,2023-03-18 19:45:25,15.08858587,0.0001281,53.216,123.2561,87.7125,272.4014,0.00035292,5.336e-05,0.0,0 STARLINK-4000,1 52605U 22052H   23077.82321280  .00005336  00000-0  35292-3 0  9995,2 52605  53.2160 123.2561 0001281  87.7125 272.4014 15.08858587 46701,6917.824,95.436,540.575,538.802,0.0
52605.0,STARLINK-4000,PAYLOAD,2023-03-18 22:56:11,15.08854729,0.0001605,53.2157,122.6636,99.4246,260.6927,0.00012593,1.717e-05,0.0,0 STARLINK-4000,1 52605U 22052H   23077.95569284  .00001717  00000-0  12593-3 0  9995,2 52605  53.2157 122.6636 0001605  99.4246 260.6927 15.08854729 47096,6917.835,95.437,540.811,538.59,0.0
52605.0,STARLINK-4000,PAYLOAD,2023-03-19 13:14:39,15.08856941,0.0001324,53.2155,119.9856,105.4917,254.6221,0.0005932,9.17e-05,0.0,0 STARLINK-4000,1 52605U 22052H   23078.55184960  .00009170  00000-0  59320-3 0  9996,2 52605  53.2155 119.9856 0001324 105.4917 254.6221 15.08856941 46815,6917.829,95.436,540.61,538.778,0.0
52605.0,STARLINK-4000,PAYLOAD,2023-03-19 19:36:12,15.08851583,9.75e-05,53.2153,118.7956,91.4962,268.6142,0.00047114,7.221e-05,0.0,0 STARLINK-4000,1 52605U 22052H   23078.81681003  .00007221  00000-0  47114-3 0  9998,2 52605  53.2153 118.7956 0000975  91.4962 268.6142 15.08851583 47226,6917.845,95.437,540.384,539.035,0.0
52605.0,STARLINK-4000,PAYLOAD,2023-03-20 11:30:03,15.0884217,0.0001413,53.2151,115.821,91.3765,268.7388,0.00019788,2.863e-05,0.0,0 STARLINK-4000,1 52605U 22052H   23079.47921285  .00002863  00000-0  19788-3 0  9993,2 52605  53.2151 115.8210 0001413  91.3765 268.7388 15.08842170 47329,6917.874,95.437,540.716,538.761,0.0
52605.0,STARLINK-4000,PAYLOAD,2023-03-20 19:26:59,15.08840267,0.0001387,53.2155,114.3361,96.3451,263.7699,0.00010779,1.428e-05,0.0,0 STARLINK-4000,1 52605U 22052H   23079.81041386  .00001428  00000-0  10779-3 0  9993,2 52605  53.2155 114.3361 0001387  96.3451 263.7699 15.08840267 47001,6917.88,95.438,540.704,538.785,0.0
52605.0,STARLINK-4000,PAYLOAD,2023-03-21 09:45:27,15.08845776,0.0001377,53.2154,111.6596,98.115,261.9999,0.00021193,3.087e-05,0.0,0 STARLINK-4000,1 52605U 22052H   23080.40657230  .00003087  00000-0  21193-3 0  9996,2 52605  53.2154 111.6596 0001377  98.1150 261.9999 15.08845776 47097,6917.863,95.437,540.68,538.775,0.0
